( pcb2gcode 1.3.2 )
( Software-independent Gcode )

( This file uses 7 drill bit sizes. )
( Bit sizes: [0.75mm] [0.9mm] [1mm] [1.02mm] [1.1mm] [3.3mm] [4.3mm] )

G94       (Millimeters per minute feed rate.)
G21       (Units == Millimeters.)
G91.1     (Incremental arc distance mode.)
G90       (Absolute coordinates.)
S10000     (RPM spindle speed.)

G00 Z10.00000 (Retract)
T1
M5      (Spindle stop.)
(MSG, Change tool bit to drill size 0.75000 mm)
M6      (Tool change.)
M0      (Temporary machine stop.)
M3      (Spindle on clockwise.)

G81 R5.00000 Z-2.50000 F1000.00000 X14.86240 Y73.86240
X16.86240 Y73.86240
X18.86240 Y73.86240
X20.86240 Y73.86240
X22.86240 Y73.86240
X24.86240 Y73.86240

G00 Z10.00000 (Retract)
T2
M5      (Spindle stop.)
(MSG, Change tool bit to drill size 0.90000 mm)
M6      (Tool change.)
M0      (Temporary machine stop.)
M3      (Spindle on clockwise.)

G81 R5.00000 Z-2.50000 F1000.00000 X4.16840 Y17.86240
X12.86240 Y17.86240
X18.86240 Y17.66740
X25.86240 Y17.86240
X31.36440 Y9.45840
X38.45040 Y4.45040
X39.86340 Y14.86240
X42.86340 Y14.86240
X48.18740 Y16.86240
X48.86240 Y12.86240
X50.86240 Y10.86240
X57.95040 Y12.95040
X61.86240 Y10.86240
X63.45040 Y7.45040
X68.93840 Y7.78340
X74.61240 Y8.61240
X80.86240 Y10.86240
X79.45040 Y13.45040
X69.86240 Y28.86240
X63.45040 Y25.45040
X60.86240 Y25.86240
X58.86240 Y27.86240
X59.86240 Y29.54940
X58.86240 Y33.86340
X54.86240 Y36.86340
X51.86240 Y35.86340
X50.18740 Y32.86340
X45.92640 Y29.92640
X43.20040 Y28.20040
X39.86340 Y27.86240
X41.86340 Y32.86340
X37.36340 Y33.36340
X32.86340 Y37.86340
X30.86240 Y40.86340
X26.86240 Y42.86340
X24.86240 Y35.86340
X16.86240 Y43.86340
X13.86240 Y43.86340
X5.86240 Y40.86340
X5.86240 Y34.86340
X10.86240 Y60.45040
X11.86240 Y62.17040
X11.67540 Y65.05040
X14.86240 Y64.86240
X15.16740 Y62.16740
X20.86240 Y62.86240
X23.30040 Y62.86240
X25.86240 Y62.86240
X22.86240 Y59.86240
X19.86240 Y58.86240
X27.86240 Y57.86240
X27.86240 Y54.86240
X23.86240 Y68.86240
X41.86340 Y42.86340
X44.86340 Y37.86340
X48.86240 Y42.86340
X52.68640 Y42.09940
X67.86240 Y42.86340
X70.03740 Y40.86340
X73.23740 Y39.48840
X75.45040 Y35.45040
X77.45040 Y35.45040
X87.45040 Y35.86340
X58.93740 Y19.93840
X58.86240 Y17.86240
X55.84340 Y20.88240
X55.85040 Y22.69640
X41.86340 Y20.86240
X39.86340 Y20.86240
X57.86240 Y7.86240

G00 Z10.00000 (Retract)
T3
M5      (Spindle stop.)
(MSG, Change tool bit to drill size 1.00000 mm)
M6      (Tool change.)
M0      (Temporary machine stop.)
M3      (Spindle on clockwise.)

G81 R5.00000 Z-2.50000 F1000.00000 X32.91040 Y16.45040
X35.45040 Y16.45040
X35.45040 Y18.99040
X32.91040 Y18.99040
X32.91040 Y26.45040
X35.45040 Y26.45040
X35.45040 Y28.99040
X32.91040 Y28.99040

G00 Z10.00000 (Retract)
T4
M5      (Spindle stop.)
(MSG, Change tool bit to drill size 1.02000 mm)
M6      (Tool change.)
M0      (Temporary machine stop.)
M3      (Spindle on clockwise.)

G81 R5.00000 Z-2.50000 F1000.00000 X32.28540 Y53.45040
X32.28540 Y68.44040

G00 Z10.00000 (Retract)
T5
M5      (Spindle stop.)
(MSG, Change tool bit to drill size 1.10000 mm)
M6      (Tool change.)
M0      (Temporary machine stop.)
M3      (Spindle on clockwise.)

G81 R5.00000 Z-2.50000 F1000.00000 X12.95040 Y47.45040
X12.95040 Y51.95040
X19.45040 Y51.95040
X19.45040 Y47.45040

G00 Z10.00000 (Retract)
T6
M5      (Spindle stop.)
(MSG, Change tool bit to drill size 3.30000 mm)
M6      (Tool change.)
M0      (Temporary machine stop.)
M3      (Spindle on clockwise.)

G81 R5.00000 Z-2.50000 F1000.00000 X59.45040 Y53.45040
X59.45040 Y68.44040

G00 Z10.00000 (Retract)
T7
M5      (Spindle stop.)
(MSG, Change tool bit to drill size 4.30000 mm)
M6      (Tool change.)
M0      (Temporary machine stop.)
M3      (Spindle on clockwise.)

G81 R5.00000 Z-2.50000 F1000.00000 X6.45040 Y78.86240
X85.45040 Y5.86240

G00 Z10.000 ( All done -- retract )

M5      (Spindle off.)
M9      (Coolant off.)
M2      (Program end.)

